     2.100          NAVIGATION                              RINEX VERSION / TYPE
fic2rin                                 12/30/2017 00:10:09 PGM / RUN BY / DATE
                                                            END OF HEADER
12 17 12 29  4  0  0.0  .358150340617D-03 -.181898940355D-11  .000000000000D+00
     .420000000000D+02 -.207500000000D+02  .431339395589D-08 -.166394188330D+01
    -.103935599327D-05  .671867735218D-02  .249035656452D-05  .515366549492D+04
     .446400000000D+06  .186264514923D-06 -.203234042986D+01 -.391155481339D-07
     .987735991169D+00  .346250000000D+03  .909196505741D+00 -.813641034272D-08
    -.714315468392D-10  .100000000000D+01  .198100000000D+04  .000000000000D+00
     .240000000000D+01  .000000000000D+00 -.125728547573D-07  .420000000000D+02
     .439206000000D+06  .400000000000D+01
13 17 12 29  4  0  0.0 -.950610265136D-04 -.227373675443D-12  .000000000000D+00
     .660000000000D+02  .176562500000D+02  .411409994020D-08  .294742186589D+00
     .892207026482D-06  .369793176651D-02  .123009085655D-04  .515366706467D+04
     .446400000000D+06 -.596046447754D-07  .221336459451D+01 -.689178705215D-07
     .968677574269D+00  .145468750000D+03  .164958550454D+01 -.783032616451D-08
    -.298941023522D-09  .100000000000D+01  .198100000000D+04  .000000000000D+00
     .240000000000D+01  .000000000000D+00 -.116415321827D-07  .660000000000D+02
     .439206000000D+06  .400000000000D+01
14 17 12 29  4  0  0.0 -.914460979402D-04 -.682121026330D-12  .000000000000D+00
     .740000000000D+02  .146875000000D+02  .432589447658D-08  .145596991474D+01
     .791624188423D-06  .924789637793D-02  .110939145088D-04  .515372972870D+04
     .446400000000D+06 -.206753611565D-06  .217246677393D+01 -.102445483208D-06
     .961181453294D+00  .165718750000D+03 -.195533289469D+01 -.795497421375D-08
    -.259653672761D-09  .100000000000D+01  .198100000000D+04  .000000000000D+00
     .240000000000D+01  .000000000000D+00 -.977888703346D-08  .740000000000D+02
     .439206000000D+06  .400000000000D+01
16 17 12 29  4  0  0.0  .348510220647D-04 -.454747350886D-12  .000000000000D+00
     .880000000000D+02 -.285312500000D+02  .420374653149D-08  .268368895780D+01
    -.152364373207D-05  .962121470366D-02  .350177288055D-05  .515355811310D+04
     .446400000000D+06 -.156462192535D-06 -.201344539750D+01 -.122934579849D-06
     .988173829384D+00  .327968750000D+03  .451216656288D+00 -.800104756146D-08
    -.145006040084D-09  .100000000000D+01  .198100000000D+04  .000000000000D+00
     .240000000000D+01  .000000000000D+00 -.107102096081D-07  .880000000000D+02
     .439206000000D+06  .400000000000D+01
17 17 12 29  4  0  0.0 -.134863425046D-03  .272848410532D-11  .000000000000D+00
     .380000000000D+02 -.100781250000D+03  .382765943738D-08  .172744727708D+01
    -.540539622307D-05  .123207515571D-01  .105295330286D-04  .515374498367D+04
     .446400000000D+06 -.838190317154D-07 -.997003645958D+00 -.301748514175D-06
     .981675231285D+00  .188906250000D+03 -.181253921062D+01 -.776032324861D-08
    -.111076055335D-09  .100000000000D+01  .198100000000D+04  .000000000000D+00
     .240000000000D+01  .000000000000D+00 -.111758708954D-07  .380000000000D+02
     .439206000000D+06  .400000000000D+01
18 17 12 29  4  0  0.0  .633567571640D-03  .113686837722D-12  .000000000000D+00
     .920000000000D+02 -.297812500000D+02  .551022952318D-08 -.299761726380D+01
    -.152550637722D-05  .182948360452D-01  .512972474098D-05  .515364010811D+04
     .446400000000D+06  .262632966042D-06  .995349872660D+00 -.912696123123D-07
     .926069375695D+00  .259593750000D+03 -.176361695521D+01 -.829998858498D-08
    -.117862052285D-10  .100000000000D+01  .198100000000D+04  .000000000000D+00
     .240000000000D+01  .000000000000D+00 -.111758708954D-07  .920000000000D+02
     .439206000000D+06  .400000000000D+01
19 17 12 29  4  0  0.0 -.467104837298D-03  .238742359215D-11  .000000000000D+00
     .920000000000D+02 -.891875000000D+02  .389873382648D-08 -.155494652373D+01
    -.448711216450D-05  .974669447169D-02  .103581696749D-04  .515369982910D+04
     .446400000000D+06  .203028321266D-06 -.949665648906D+00  .912696123123D-07
     .979112178329D+00  .186312500000D+03  .110614993771D+01 -.771960726691D-08
    -.400016662300D-10  .100000000000D+01  .198100000000D+04  .000000000000D+00
     .340000000000D+01  .000000000000D+00 -.153668224812D-07  .920000000000D+02
     .439206000000D+06  .400000000000D+01
20 17 12 29  4  0  0.0  .496840104461D-03  .102318153949D-11  .000000000000D+00
     .720000000000D+02 -.180625000000D+02  .571952395542D-08  .674183293777D+00
    -.102072954178D-05  .460163678508D-02  .521540641785D-05  .515375885391D+04
     .446400000000D+06  .242143869400D-07  .944301498428D+00 -.894069671631D-07
     .927521339444D+00  .266406250000D+03  .175413950334D+01 -.873393523203D-08
    -.678599694973D-10  .100000000000D+01  .198100000000D+04  .000000000000D+00
     .240000000000D+01  .000000000000D+00 -.838190317154D-08  .720000000000D+02
     .439206000000D+06  .400000000000D+01
21 17 12 29  4  0  0.0 -.447629950941D-03  .397903932026D-11  .000000000000D+00
     .460000000000D+02  .125000000000D+02  .472769692755D-08 -.209170266994D+01
     .750645995140D-06  .241698778700D-01  .851228833199D-05  .515379409981D+04
     .446400000000D+06  .342726707458D-06 -.436528259497D-01  .184401869774D-06
     .942495499726D+00  .198562500000D+03 -.161314726830D+01 -.782461164077D-08
     .462162108050D-09  .100000000000D+01  .198100000000D+04  .000000000000D+00
     .240000000000D+01  .000000000000D+00 -.977888703346D-08  .460000000000D+02
     .439206000000D+06  .400000000000D+01
22 17 12 29  4  0  0.0 -.238321721554D-03 -.128466126625D-10  .000000000000D+00
     .490000000000D+02 -.259375000000D+02  .580167023428D-08  .111815011720D+01
    -.150687992573D-05  .716882676352D-02  .594556331635D-05  .515362490082D+04
     .446400000000D+06 -.128522515297D-06  .994799429252D+00 -.931322574615D-07
     .924192286490D+00  .249218750000D+03 -.163835837047D+01 -.878500878802D-08
    -.135005623526D-09  .100000000000D+01  .198100000000D+04  .000000000000D+00
     .240000000000D+01  .000000000000D+00 -.176951289177D-07  .490000000000D+02
     .439206000000D+06  .400000000000D+01
23 17 12 29  4  0  0.0 -.219058245420D-03  .000000000000D+00  .000000000000D+00
     .480000000000D+02  .144687500000D+02  .478698511143D-08  .418116358762D+00
     .877305865288D-06  .118798572803D-01  .113695859909D-04  .515362607574D+04
     .446400000000D+06 -.745058059692D-07  .208369449399D+01  .229105353355D-06
     .943553856588D+00  .152750000000D+03 -.240890987421D+01 -.822284251440D-08
    -.401802450971D-09  .100000000000D+01  .198100000000D+04  .000000000000D+00
     .240000000000D+01  .000000000000D+00 -.204890966415D-07  .480000000000D+02
     .439206000000D+06  .400000000000D+01
24 17 12 29  4  0  0.0 -.440897420049D-04 -.454747350886D-12  .000000000000D+00
     .102000000000D+03  .103187500000D+03  .499592238593D-08 -.137797886121D+00
     .543519854546D-05  .655729335267D-02  .782124698162D-05  .515366423416D+04
     .446400000000D+06  .447034835815D-07  .310467442368D+01  .391155481339D-07
     .943482532017D+00  .219875000000D+03  .498103230467D+00 -.842713673836D-08
     .211080220910D-09  .100000000000D+01  .198100000000D+04  .000000000000D+00
     .240000000000D+01  .000000000000D+00  .279396772385D-08  .102000000000D+03
     .439206000000D+06  .400000000000D+01
25 17 12 29  4  0  0.0 -.513443257660D-03 -.613908923697D-11  .000000000000D+00
     .430000000000D+02 -.158437500000D+02  .452876006961D-08 -.210245925349D+01
    -.886619091034D-06  .688378303312D-02  .236369669437D-05  .515370468712D+04
     .446400000000D+06  .104308128357D-06 -.209027841825D+01 -.596046447754D-07
     .975520645688D+00  .342000000000D+03  .802795198362D+00 -.825105797540D-08
     .928610108910D-11  .100000000000D+01  .198100000000D+04  .000000000000D+00
     .240000000000D+01  .000000000000D+00  .558793544769D-08  .430000000000D+02
     .439206000000D+06  .400000000000D+01
28 17 12 29  4  0  0.0  .675049144775D-03  .318323145621D-11  .000000000000D+00
     .630000000000D+02 -.346562500000D+02  .422196157593D-08  .267239800977D+01
    -.177510082722D-05  .199651515577D-01  .232458114624D-05  .515366757011D+04
     .446400000000D+06  .255182385445D-06 -.200908188445D+01 -.894069671631D-07
     .987011840868D+00  .345468750000D+03 -.153772951400D+01 -.792032991353D-08
    -.296798077117D-09  .100000000000D+01  .198100000000D+04  .000000000000D+00
     .240000000000D+01  .000000000000D+00 -.111758708954D-07  .630000000000D+02
     .439206000000D+06  .400000000000D+01
29 17 12 29  4  0  0.0  .518745742738D-03 -.522959453519D-11  .000000000000D+00
     .370000000000D+02 -.835000000000D+02  .387659004696D-08 -.313138444488D+01
    -.434927642345D-05  .419941032305D-03  .942870974541D-05  .515376252747D+04
     .446400000000D+06 -.260770320892D-07 -.986601407497D+00 -.502914190292D-07
     .982891577448D+00  .206906250000D+03  .808845113634D+00 -.777353808478D-08
    -.118933525487D-09  .100000000000D+01  .198100000000D+04  .000000000000D+00
     .240000000000D+01  .000000000000D+00 -.102445483208D-07  .370000000000D+02
     .439206000000D+06  .400000000000D+01
30 17 12 29  4  0  0.0  .117063988000D-03 -.306954461848D-11  .000000000000D+00
     .360000000000D+02  .123031250000D+03  .490020411317D-08 -.980675051749D+00
     .626035034657D-05  .302530080080D-02  .682845711708D-05  .515359143257D+04
     .446400000000D+06  .670552253723D-07 -.308562433079D+01 -.838190317154D-07
     .946101943892D+00  .237968750000D+03 -.308834750890D+01 -.839642117322D-08
     .311441544219D-09  .100000000000D+01  .198100000000D+04  .000000000000D+00
     .240000000000D+01  .000000000000D+00  .372529029846D-08  .360000000000D+02
     .439206000000D+06  .400000000000D+01
